NORAD_CAT_ID,OBJECT_NAME,OBJECT_TYPE,EPOCH,MEAN_MOTION,ECCENTRICITY,INCLINATION,RA_OF_ASC_NODE,ARG_OF_PERICENTER,MEAN_ANOMALY,BSTAR,MEAN_MOTION_DOT,MEAN_MOTION_DDOT,TLE_LINE0,TLE_LINE1,TLE_LINE2,SEMIMAJOR_AXIS,PERIOD,APOGEE,PERIGEE,DECAYED
53145.0,STARLINK-4106,PAYLOAD,2022-09-06 04:00:00,15.13240414,0.0001703,53.2176,162.6223,44.683,45.9173,-0.068234,-0.01131346,0.0,0 STARLINK-4106,1 53145U 22083P   22249.16667824 -.01131346  00000-0 -68234-1 0  9997,2 53145  53.2176 162.6223 0001703  44.6830  45.9173 15.13240414  8532,6904.4630000000025,95.16,527.504,525.1519999999998,0.0
53145.0,STARLINK-4106,PAYLOAD,2022-09-06 14:00:01,15.12278625,0.0001727,53.217,160.7405,46.7039,154.2163,-0.073784,-0.01185961,0.0,0 STARLINK-4106,1 53145U 22083P   22249.58334491 -.01185961  00000-0 -73784-1 0  9992,2 53145  53.2170 160.7405 0001727  46.7039 154.2163 15.12278625  1302,6907.39,95.221,530.448,528.062,0.0
53145.0,STARLINK-4106,PAYLOAD,2022-09-06 20:00:01,15.11634985,0.0001769,53.2175,159.6167,45.4349,76.9867,-0.071394,-0.01131552,0.0,0 STARLINK-4106,1 53145U 22083P   22249.83334491 -.01131552  00000-0 -71394-1 0  9992,2 53145  53.2175 159.6167 0001769  45.4349  76.9867 15.11634985  8633,6909.35,95.261,532.438,529.993,0.0
53145.0,STARLINK-4106,PAYLOAD,2022-09-06 22:00:00,15.11433361,0.0001753,53.2175,159.2424,49.2508,166.8769,-0.071685,-0.01129912,0.0,0 STARLINK-4106,1 53145U 22083P   22249.91667824 -.01129912  00000-0 -71685-1 0  9990,2 53145  53.2175 159.2424 0001753  49.2508 166.8769 15.11433361  1309,6909.965,95.274,533.0409999999998,530.619,0.0
53145.0,STARLINK-4106,PAYLOAD,2022-09-07 14:00:01,15.09761723,0.0001606,53.217,156.2433,41.7958,201.8152,-0.06064,-0.00915904,0.0,0 STARLINK-4106,1 53145U 22083P   22250.58334491 -.00915904  00000-0 -60640-1 0  9998,2 53145  53.2170 156.2433 0001606  41.7958 201.8152 15.09761723  1303,6915.064,95.379,538.04,535.819,0.0
53145.0,STARLINK-4106,PAYLOAD,2022-09-07 22:00:00,15.08990588,0.0001756,53.2174,154.7493,41.5535,214.3682,-0.01496,-0.00231767,0.0,0 STARLINK-4106,1 53145U 22083P   22250.91667824 -.00231767  00000-0 -14960-1 0  9996,2 53145  53.2174 154.7493 0001756  41.5535 214.3682 15.08990588  8790,6917.42,95.428,540.5,538.07,0.0
53145.0,STARLINK-4106,PAYLOAD,2022-09-08 06:00:00,15.08852905,0.0001545,53.216,153.2497,43.62,223.9598,-0.00094502,-0.00015302,0.0,0 STARLINK-4106,1 53145U 22083P   22251.25001157 -.00015302  00000-0 -94502-3 0  9992,2 53145  53.2160 153.2497 0001545  43.6200 223.9598 15.08852905  8849,6917.840999999999,95.437,540.775,538.637,0.0
53145.0,STARLINK-4106,PAYLOAD,2022-09-08 14:00:01,15.08833485,0.0001441999999999,53.2149,151.7461,44.4769,234.7292,0.0019105,0.00030243,0.0,0 STARLINK-4106,1 53145U 22083P   22251.58334491  .00030243  00000-0  19105-2 0  9992,2 53145  53.2149 151.7461 0001442  44.4769 234.7292 15.08833485  1302,6917.9,95.438,540.763,538.768,0.0
53145.0,STARLINK-4106,PAYLOAD,2022-09-08 22:00:00,15.08853104,0.0001673,53.2151,150.2508,45.7801,245.0364,-0.0025544,-0.00040727,0.0,0 STARLINK-4106,1 53145U 22083P   22251.91667824 -.00040727  00000-0 -25544-2 0  9992,2 53145  53.2151 150.2508 0001673  45.7801 245.0364 15.08853104  1303,6917.84,95.437,540.863,538.548,0.0
53145.0,STARLINK-4106,PAYLOAD,2022-09-09 14:00:01,15.0879199,0.0001702,53.2153,147.2569,52.7871,261.2211,0.0036928,0.00058897,0.0,0 STARLINK-4106,1 53145U 22083P   22252.58334491  .00058897  00000-0  36928-2 0  9990,2 53145  53.2153 147.2569 0001702  52.7871 261.2211 15.08791990  9040,6918.026999999999,95.441,541.07,538.715,0.0
53145.0,STARLINK-4106,PAYLOAD,2022-09-09 22:00:00,15.08839036,0.0001825,53.2154,145.7618,50.7714,274.7985,-0.00077122,-0.00012541,0.0,0 STARLINK-4106,1 53145U 22083P   22252.91667824 -.00012541  00000-0 -77122-3 0  9996,2 53145  53.2154 145.7618 0001825  50.7714 274.7985 15.08839036  1301,6917.8830000000025,95.438,541.011,538.486,0.0
53145.0,STARLINK-4106,PAYLOAD,2022-09-10 04:00:00,15.08814601,0.0001892,53.2153,144.6403,47.0424,197.2249,0.0035193,0.00056129,0.0,0 STARLINK-4106,1 53145U 22083P   22253.16667824  .00056129  00000-0  35193-2 0  9993,2 53145  53.2153 144.6403 0001892  47.0424 197.2249 15.08814601  9133,6917.958000000001,95.439,541.132,538.514,0.0
53145.0,STARLINK-4106,PAYLOAD,2022-09-10 12:00:00,15.08840138,0.000168,53.2153,143.1421,51.847,204.0124,-0.00061385,-0.00010044,0.0,0 STARLINK-4106,1 53145U 22083P   22253.50001157 -.00010044  00000-0 -61385-3 0  9993,2 53145  53.2153 143.1421 0001680  51.8470 204.0124 15.08840138  9184,6917.88,95.438,540.9069999999998,538.5830000000002,0.0
53145.0,STARLINK-4106,PAYLOAD,2022-09-10 14:00:01,15.08824694,0.0001659,53.2152,142.7677,53.3369,295.4289,0.0011423,0.00017931,0.0,0 STARLINK-4106,1 53145U 22083P   22253.58334491  .00017931  00000-0  11423-2 0  9998,2 53145  53.2152 142.7677 0001659  53.3369 295.4289 15.08824694  1302,6917.927,95.439,540.94,538.644,0.0
53145.0,STARLINK-4106,PAYLOAD,2022-09-10 22:00:00,15.08842477,0.0001773,53.2151,141.2727,49.6484,310.7036,-0.00083241,-0.00013513,0.0,0 STARLINK-4106,1 53145U 22083P   22253.91667824 -.00013513  00000-0 -83241-3 0  9996,2 53145  53.2151 141.2727 0001773  49.6484 310.7036 15.08842477  1315,6917.873000000001,95.437,540.964,538.511,0.0
53145.0,STARLINK-4106,PAYLOAD,2022-09-11 14:00:01,15.08804028,0.0001719,53.215,138.2783,56.3306,327.2262,0.0037814999999999,0.00060351,0.0,0 STARLINK-4106,1 53145U 22083P   22254.58334491  .00060351  00000-0  37815-2 0  9996,2 53145  53.2150 138.2783 0001719  56.3306 327.2262 15.08804028  9356,6917.99,95.44,541.045,538.6659999999998,0.0
53145.0,STARLINK-4106,PAYLOAD,2022-09-11 22:00:00,15.08848524,0.0001857,53.2156,136.7835,53.0827,342.0517,-0.00074494,-0.00012127,0.0,0 STARLINK-4106,1 53145U 22083P   22254.91667824 -.00012127  00000-0 -74494-3 0  9997,2 53145  53.2156 136.7835 0001857  53.0827 342.0517 15.08848524  1302,6917.854,95.437,541.004,538.435,0.0
53145.0,STARLINK-4106,PAYLOAD,2022-09-12 04:00:00,15.08847772,0.0001841999999999,53.2158,135.6615,49.2621,264.5696,-0.00026724,-4.54e-05,0.0,0 STARLINK-4106,1 53145U 22083P   22255.16667824 -.00004540  00000-0 -26724-3 0  9998,2 53145  53.2158 135.6615 0001842  49.2621 264.5696 15.08847772  9433,6917.857,95.437,540.996,538.447,0.0
53145.0,STARLINK-4106,PAYLOAD,2022-09-12 14:00:01,15.08811063,0.0001625,53.2158,133.789,56.6144,1.7271,0.0035568,0.00056729,0.0,0 STARLINK-4106,1 53145U 22083P   22255.58334491  .00056729  00000-0  35568-2 0  9994,2 53145  53.2158 133.7890 0001625  56.6144   1.7271 15.08811063  1300,6917.969,95.439,540.9580000000002,538.71,0.0
53145.0,STARLINK-4106,PAYLOAD,2022-09-12 22:00:00,15.08856873,0.0001766999999999,53.2156,132.2942,51.6935,18.2332,-0.0013995999999999,-0.00022504,0.0,0 STARLINK-4106,1 53145U 22083P   22255.91667824 -.00022504  00000-0 -13996-2 0  9997,2 53145  53.2156 132.2942 0001767  51.6935  18.2332 15.08856873  1309,6917.829000000002,95.436,540.9159999999998,538.471,0.0
53145.0,STARLINK-4106,PAYLOAD,2022-09-13 06:00:00,15.08852919,0.0001715,53.2152,130.7974,48.7373,32.7948,-0.001828,-0.00029273,0.0,0 STARLINK-4106,1 53145U 22083P   22256.25001157 -.00029273  00000-0 -18280-2 0  9997,2 53145  53.2152 130.7974 0001715  48.7373  32.7948 15.08852919  9601,6917.840999999999,95.437,540.8919999999998,538.519,0.0
53145.0,STARLINK-4106,PAYLOAD,2022-09-13 14:00:01,15.08834763,0.0001621999999999,53.2152,129.2996,56.783,36.3491,-0.00012801,-2.324e-05,0.0,0 STARLINK-4106,1 53145U 22083P   22256.58334491 -.00002324  00000-0 -12801-3 0  9995,2 53145  53.2152 129.2996 0001622  56.7830  36.3491 15.08834763  1301,6917.896,95.438,540.883,538.639,0.0
53145.0,STARLINK-4106,PAYLOAD,2022-09-13 22:00:00,15.08820218,0.0001849,53.2151,127.8049,53.7354,50.9792,-0.00037329,-6.221e-05,0.0,0 STARLINK-4106,1 53145U 22083P   22256.91667824 -.00006221  00000-0 -37329-3 0  9993,2 53145  53.2151 127.8049 0001849  53.7354  50.9792 15.08820218  1308,6917.941,95.439,541.085,538.5269999999998,0.0
53145.0,STARLINK-4106,PAYLOAD,2022-09-14 04:00:00,15.08818229,0.0001865999999999,53.2154,126.6857,49.3273,334.061,0.001552,0.00024484,0.0,0 STARLINK-4106,1 53145U 22083P   22257.16667824  .00024484  00000-0  15520-2 0  9998,2 53145  53.2154 126.6857 0001866  49.3273 334.0610 15.08818229  9745,6917.946999999999,95.439,541.1030000000002,538.521,0.0
53145.0,STARLINK-4106,PAYLOAD,2022-09-14 14:00:01,15.08818947,0.0001769,53.2151,124.8102,58.5245,69.3366,0.0026665,0.00042381,0.0,0 STARLINK-4106,1 53145U 22083P   22257.58334491  .00042381  00000-0  26665-2 0  9993,2 53145  53.2151 124.8102 0001769  58.5245  69.3366 15.08818947  1305,6917.945,95.439,541.034,538.586,0.0
53145.0,STARLINK-4106,PAYLOAD,2022-09-14 20:00:01,15.08853322,0.0001873,53.2151,123.6892,54.8164,351.731,-0.0011656,-0.00018798,0.0,0 STARLINK-4106,1 53145U 22083P   22257.83334491 -.00018798  00000-0 -11656-2 0  9992,2 53145  53.2151 123.6892 0001873  54.8164 351.7310 15.08853322  9843,6917.84,95.437,541.0,538.409,0.0
53145.0,STARLINK-4106,PAYLOAD,2022-09-14 22:00:00,15.08843537,0.0001926,53.2151,123.3155,53.2341,86.2159,-8.6454e-05,-1.664e-05,0.0,0 STARLINK-4106,1 53145U 22083P   22257.91667824 -.00001664  00000-0 -86454-4 0  9994,2 53145  53.2151 123.3155 0001926  53.2341  86.2159 15.08843537  1302,6917.87,95.437,541.067,538.4019999999998,0.0
53145.0,STARLINK-4106,PAYLOAD,2022-09-15 14:00:01,15.08825719,0.0001736,53.2155,120.3208,56.2535,106.3896,0.0023979,0.00038066,0.0,0 STARLINK-4106,1 53145U 22083P   22258.58334491  .00038066  00000-0  23979-2 0  9994,2 53145  53.2155 120.3208 0001736  56.2535 106.3896 15.08825719  1303,6917.924,95.438,540.99,538.5880000000002,0.0
53145.0,STARLINK-4106,PAYLOAD,2022-09-15 22:00:00,15.08855601,0.0001874,53.2156,118.8262,50.2491,123.9891,-0.002487,-0.00039669,0.0,0 STARLINK-4106,1 53145U 22083P   22258.91667824 -.00039669  00000-0 -24870-2 0  9993,2 53145  53.2156 118.8262 0001874  50.2491 123.9891 15.08855601 10004,6917.833000000001,95.437,540.994,538.401,0.0
